CZ-2D R/B               
1 28738U 05024B   25332.54338842  .00024824  00000+0  41017-3 0  9996
2 28738  97.3649 339.6294 0007480  49.2270 310.9630 15.52201010124058
ALOS (DAICHI)           
1 28931U 06002A   25332.80438053  .00001665  00000+0  28966-3 0  9998
2 28931  98.1074 284.3923 0000697  90.0208 270.1077 14.69419429 58664
H-2A R/B                
1 28932U 06002B   25332.64497629  .00010890  00000+0  57978-3 0  9990
2 28932  98.2308 106.2479 0054426 224.2730 135.4140 15.14137372 79138
RESURS-DK 1             
1 29228U 06021A   25332.80612248  .00003305  00000+0  19794-3 0  9991
2 29228  69.9319 137.8419 0007660 268.6780  91.3508 15.12035712 72272
CZ-4B R/B               
1 29507U 06046C   25332.83986419  .00004976  00000+0  26182-3 0  9999
2 29507  97.5759  13.0164 0032577 256.2685 103.4920 15.15658888 44765
CZ-2C R/B               
1 31114U 07010B   25332.76904620  .00000171  00000+0  97823-4 0  9998
2 31114  98.3970  86.1234 0058232 226.8404 132.7898 14.20200571965390
COSMO-SKYMED 1          
1 31598U 07023A   25332.80601750  .00004603  00000+0  41974-3 0  9990
2 31598  97.8849 158.1150 0001564  88.6906 271.4494 14.95607985999818
COSMOS 2428             
1 31792U 07029A   25332.57877802 -.00000087  00000+0 -21155-4 0  9993
2 31792  70.9375  55.6111 0002885  46.0657 314.0702 14.12886456949818
SL-16 R/B               
1 31793U 07029B   25332.61234545 -.00000112  00000+0 -33350-4 0  9999
2 31793  70.9776  24.8548 0002433 265.9670 205.5661 14.14816951951076
KORONAS-FOTON           
1 33504U 09003A   25332.59813535  .00013059  00000+0  31775-3 0  9994
2 33504  82.4326  20.7530 0012298 154.5957 205.5897 15.40733263930166
CZ-2C R/B               
1 37731U 11030B   25332.48164752  .00001847  00000+0  24091-3 0  9996
2 37731  97.8392 286.9066 0052036 321.2386 152.7856 14.80824533775112
H-2A R/B                
1 38341U 12025E   25332.84629752  .00003002  00000+0  28063-3 0  9993
2 38341  98.4580 287.0088 0043770 283.4708  76.1634 14.94305125733151
