CCSDS_OMM_VERS = 2.0
CREATION_DATE  = 
ORIGINATOR     = 

OBJECT_NAME    = CZ-2D R/B
OBJECT_ID      = 2005-024B
CENTER_NAME    = EARTH
REF_FRAME      = TEME
TIME_SYSTEM    = UTC
MEAN_ELEMENT_THEORY = SGP/SGP4

EPOCH          = 2025-11-28T13:02:28.759488
MEAN_MOTION    = 15.52201010
ECCENTRICITY   = .00074808
INCLINATION    = 97.3649
RA_OF_ASC_NODE = 339.6294
ARG_OF_PERICENTER = 49.2270
MEAN_ANOMALY   = 310.9630

EPHEMERIS_TYPE = 0
CLASSIFICATION_TYPE = U
NORAD_CAT_ID   = 28738
ELEMENT_SET_NO = 999
REV_AT_EPOCH   = 12405
BSTAR          = .41016946E-3
MEAN_MOTION_DOT = .24824E-3
MEAN_MOTION_DDOT = 0

CCSDS_OMM_VERS = 2.0
CREATION_DATE  = 
ORIGINATOR     = 

OBJECT_NAME    = ALOS (DAICHI)
OBJECT_ID      = 2006-002A
CENTER_NAME    = EARTH
REF_FRAME      = TEME
TIME_SYSTEM    = UTC
MEAN_ELEMENT_THEORY = SGP/SGP4

EPOCH          = 2025-11-28T19:18:18.477792
MEAN_MOTION    = 14.69419429
ECCENTRICITY   = .0000697
INCLINATION    = 98.1074
RA_OF_ASC_NODE = 284.3923
ARG_OF_PERICENTER = 90.0208
MEAN_ANOMALY   = 270.1077

EPHEMERIS_TYPE = 0
CLASSIFICATION_TYPE = U
NORAD_CAT_ID   = 28931
ELEMENT_SET_NO = 999
REV_AT_EPOCH   = 5866
BSTAR          = .28966E-3
MEAN_MOTION_DOT = .1665E-4
MEAN_MOTION_DDOT = 0

CCSDS_OMM_VERS = 2.0
CREATION_DATE  = 
ORIGINATOR     = 

OBJECT_NAME    = H-2A R/B
OBJECT_ID      = 2006-002B
CENTER_NAME    = EARTH
REF_FRAME      = TEME
TIME_SYSTEM    = UTC
MEAN_ELEMENT_THEORY = SGP/SGP4

EPOCH          = 2025-11-28T15:28:45.951456
MEAN_MOTION    = 15.14137372
ECCENTRICITY   = .00544265
INCLINATION    = 98.2308
RA_OF_ASC_NODE = 106.2479
ARG_OF_PERICENTER = 224.2730
MEAN_ANOMALY   = 135.4140

EPHEMERIS_TYPE = 0
CLASSIFICATION_TYPE = U
NORAD_CAT_ID   = 28932
ELEMENT_SET_NO = 999
REV_AT_EPOCH   = 7913
BSTAR          = .57978053E-3
MEAN_MOTION_DOT = .1089E-3
MEAN_MOTION_DDOT = 0

CCSDS_OMM_VERS = 2.0
CREATION_DATE  = 
ORIGINATOR     = 

OBJECT_NAME    = RESURS-DK 1
OBJECT_ID      = 2006-021A
CENTER_NAME    = EARTH
REF_FRAME      = TEME
TIME_SYSTEM    = UTC
MEAN_ELEMENT_THEORY = SGP/SGP4

EPOCH          = 2025-11-28T19:20:48.982272
MEAN_MOTION    = 15.12035712
ECCENTRICITY   = .000766
INCLINATION    = 69.9319
RA_OF_ASC_NODE = 137.8419
ARG_OF_PERICENTER = 268.6780
MEAN_ANOMALY   = 91.3508

EPHEMERIS_TYPE = 0
CLASSIFICATION_TYPE = U
NORAD_CAT_ID   = 29228
ELEMENT_SET_NO = 999
REV_AT_EPOCH   = 7227
BSTAR          = .19794E-3
MEAN_MOTION_DOT = .3305E-4
MEAN_MOTION_DDOT = 0

CCSDS_OMM_VERS = 2.0
CREATION_DATE  = 
ORIGINATOR     = 

OBJECT_NAME    = CZ-4B R/B
OBJECT_ID      = 2006-046C
CENTER_NAME    = EARTH
REF_FRAME      = TEME
TIME_SYSTEM    = UTC
MEAN_ELEMENT_THEORY = SGP/SGP4

EPOCH          = 2025-11-28T20:09:24.266016
MEAN_MOTION    = 15.15658888
ECCENTRICITY   = .0032577
INCLINATION    = 97.5759
RA_OF_ASC_NODE = 13.0164
ARG_OF_PERICENTER = 256.2685
MEAN_ANOMALY   = 103.4920

EPHEMERIS_TYPE = 0
CLASSIFICATION_TYPE = U
NORAD_CAT_ID   = 29507
ELEMENT_SET_NO = 999
REV_AT_EPOCH   = 4476
BSTAR          = .26182E-3
MEAN_MOTION_DOT = .4976E-4
MEAN_MOTION_DDOT = 0

CCSDS_OMM_VERS = 2.0
CREATION_DATE  = 
ORIGINATOR     = 

OBJECT_NAME    = CZ-2C R/B
OBJECT_ID      = 2007-010B
CENTER_NAME    = EARTH
REF_FRAME      = TEME
TIME_SYSTEM    = UTC
MEAN_ELEMENT_THEORY = SGP/SGP4

EPOCH          = 2025-11-28T18:27:25.591680
MEAN_MOTION    = 14.20200571
ECCENTRICITY   = .0058232
INCLINATION    = 98.3970
RA_OF_ASC_NODE = 86.1234
ARG_OF_PERICENTER = 226.8404
MEAN_ANOMALY   = 132.7898

EPHEMERIS_TYPE = 0
CLASSIFICATION_TYPE = U
NORAD_CAT_ID   = 31114
ELEMENT_SET_NO = 999
REV_AT_EPOCH   = 96539
BSTAR          = .97823E-4
MEAN_MOTION_DOT = .171E-5
MEAN_MOTION_DDOT = 0

CCSDS_OMM_VERS = 2.0
CREATION_DATE  = 
ORIGINATOR     = 

OBJECT_NAME    = COSMO-SKYMED 1
OBJECT_ID      = 2007-023A
CENTER_NAME    = EARTH
REF_FRAME      = TEME
TIME_SYSTEM    = UTC
MEAN_ELEMENT_THEORY = SGP/SGP4

EPOCH          = 2025-11-28T19:20:39.912000
MEAN_MOTION    = 14.95607985
ECCENTRICITY   = .0001564
INCLINATION    = 97.8849
RA_OF_ASC_NODE = 158.1150
ARG_OF_PERICENTER = 88.6906
MEAN_ANOMALY   = 271.4494

EPHEMERIS_TYPE = 0
CLASSIFICATION_TYPE = U
NORAD_CAT_ID   = 31598
ELEMENT_SET_NO = 999
REV_AT_EPOCH   = 99981
BSTAR          = .41974E-3
MEAN_MOTION_DOT = .4603E-4
MEAN_MOTION_DDOT = 0

CCSDS_OMM_VERS = 2.0
CREATION_DATE  = 
ORIGINATOR     = 

OBJECT_NAME    = COSMOS 2428
OBJECT_ID      = 2007-029A
CENTER_NAME    = EARTH
REF_FRAME      = TEME
TIME_SYSTEM    = UTC
MEAN_ELEMENT_THEORY = SGP/SGP4

EPOCH          = 2025-11-28T13:53:26.420928
MEAN_MOTION    = 14.12886456
ECCENTRICITY   = .00028859
INCLINATION    = 70.9375
RA_OF_ASC_NODE = 55.6111
ARG_OF_PERICENTER = 46.0657
MEAN_ANOMALY   = 314.0702

EPHEMERIS_TYPE = 0
CLASSIFICATION_TYPE = U
NORAD_CAT_ID   = 31792
ELEMENT_SET_NO = 999
REV_AT_EPOCH   = 94981
BSTAR          = -.21155432E-4
MEAN_MOTION_DOT = -.87E-6
MEAN_MOTION_DDOT = 0

CCSDS_OMM_VERS = 2.0
CREATION_DATE  = 
ORIGINATOR     = 

OBJECT_NAME    = SL-16 R/B
OBJECT_ID      = 2007-029B
CENTER_NAME    = EARTH
REF_FRAME      = TEME
TIME_SYSTEM    = UTC
MEAN_ELEMENT_THEORY = SGP/SGP4

EPOCH          = 2025-11-28T14:41:46.646880
MEAN_MOTION    = 14.14816951
ECCENTRICITY   = .00024335
INCLINATION    = 70.9776
RA_OF_ASC_NODE = 24.8548
ARG_OF_PERICENTER = 265.9670
MEAN_ANOMALY   = 205.5661

EPHEMERIS_TYPE = 0
CLASSIFICATION_TYPE = U
NORAD_CAT_ID   = 31793
ELEMENT_SET_NO = 999
REV_AT_EPOCH   = 95107
BSTAR          = -.33350379E-4
MEAN_MOTION_DOT = -.112E-5
MEAN_MOTION_DDOT = 0

CCSDS_OMM_VERS = 2.0
CREATION_DATE  = 
ORIGINATOR     = 

OBJECT_NAME    = KORONAS-FOTON
OBJECT_ID      = 2009-003A
CENTER_NAME    = EARTH
REF_FRAME      = TEME
TIME_SYSTEM    = UTC
MEAN_ELEMENT_THEORY = SGP/SGP4

EPOCH          = 2025-11-28T14:21:18.894240
MEAN_MOTION    = 15.40733263
ECCENTRICITY   = .00122983
INCLINATION    = 82.4326
RA_OF_ASC_NODE = 20.7530
ARG_OF_PERICENTER = 154.5957
MEAN_ANOMALY   = 205.5897

EPHEMERIS_TYPE = 0
CLASSIFICATION_TYPE = U
NORAD_CAT_ID   = 33504
ELEMENT_SET_NO = 999
REV_AT_EPOCH   = 93016
BSTAR          = .31774639E-3
MEAN_MOTION_DOT = .13059E-3
MEAN_MOTION_DDOT = 0

CCSDS_OMM_VERS = 2.0
CREATION_DATE  = 
ORIGINATOR     = 

OBJECT_NAME    = CZ-2C R/B
OBJECT_ID      = 2011-030B
CENTER_NAME    = EARTH
REF_FRAME      = TEME
TIME_SYSTEM    = UTC
MEAN_ELEMENT_THEORY = SGP/SGP4

EPOCH          = 2025-11-28T11:33:34.345728
MEAN_MOTION    = 14.80824533
ECCENTRICITY   = .00520366
INCLINATION    = 97.8392
RA_OF_ASC_NODE = 286.9066
ARG_OF_PERICENTER = 321.2386
MEAN_ANOMALY   = 152.7856

EPHEMERIS_TYPE = 0
CLASSIFICATION_TYPE = U
NORAD_CAT_ID   = 37731
ELEMENT_SET_NO = 999
REV_AT_EPOCH   = 77511
BSTAR          = .24091405E-3
MEAN_MOTION_DOT = .1847E-4
MEAN_MOTION_DDOT = 0

CCSDS_OMM_VERS = 2.0
CREATION_DATE  = 
ORIGINATOR     = 

OBJECT_NAME    = H-2A R/B
OBJECT_ID      = 2012-025E
CENTER_NAME    = EARTH
REF_FRAME      = TEME
TIME_SYSTEM    = UTC
MEAN_ELEMENT_THEORY = SGP/SGP4

EPOCH          = 2025-11-28T20:18:40.105728
MEAN_MOTION    = 14.94305125
ECCENTRICITY   = .004377
INCLINATION    = 98.4580
RA_OF_ASC_NODE = 287.0088
ARG_OF_PERICENTER = 283.4708
MEAN_ANOMALY   = 76.1634

EPHEMERIS_TYPE = 0
CLASSIFICATION_TYPE = U
NORAD_CAT_ID   = 38341
ELEMENT_SET_NO = 999
REV_AT_EPOCH   = 73315
BSTAR          = .28063E-3
MEAN_MOTION_DOT = .3002E-4
MEAN_MOTION_DDOT = 0

